NORAD_CAT_ID,OBJECT_NAME,OBJECT_TYPE,EPOCH,MEAN_MOTION,ECCENTRICITY,INCLINATION,RA_OF_ASC_NODE,ARG_OF_PERICENTER,MEAN_ANOMALY,BSTAR,MEAN_MOTION_DOT,MEAN_MOTION_DDOT,TLE_LINE0,TLE_LINE1,TLE_LINE2,SEMIMAJOR_AXIS,PERIOD,APOGEE,PERIGEE,DECAYED
52677.0,STARLINK-4028,PAYLOAD,2022-10-12 12:07:01,15.088351199999998,0.0002063,53.2176,329.4799,37.9557,322.158,6.368e-05,7.25e-06,0.0,0 STARLINK-4028,1 52677U 22053X   22285.50487624  .00000725  00000-0  63680-4 0  9995,2 52677  53.2176 329.4799 0002063  37.9557 322.1580 15.08835120 22911,6917.895,95.438,541.187,538.3330000000002,0.0
52677.0,STARLINK-4028,PAYLOAD,2022-10-13 10:22:25,15.0883526,0.0002126999999999,53.2178,325.3169,38.3534,321.7609,0.00019822,2.868e-05,0.0,0 STARLINK-4028,1 52677U 22053X   22286.43223839  .00002868  00000-0  19822-3 0  9992,2 52677  53.2178 325.3169 0002127  38.3534 321.7609 15.08835260 23463,6917.895,95.438,541.231,538.288,0.0
52677.0,STARLINK-4028,PAYLOAD,2022-10-13 11:57:49,15.08828136,0.0002316999999999,53.2175,325.0197,39.0682,321.0477,0.00017484,2.495e-05,0.0,0 STARLINK-4028,1 52677U 22053X   22286.49848489  .00002495  00000-0  17484-3 0  9990,2 52677  53.2175 325.0197 0002317  39.0682 321.0477 15.08828136 23067,6917.917,95.438,541.385,538.179,0.0
52677.0,STARLINK-4028,PAYLOAD,2022-10-13 19:54:44,15.08831173,0.0002278999999999,53.2177,323.5338,42.014,318.1027,0.00023087,3.387e-05,0.0,0 STARLINK-4028,1 52677U 22053X   22286.82968346  .00003387  00000-0  23087-3 0  9999,2 52677  53.2177 323.5338 0002279  42.0140 318.1027 15.08831173 23523,6917.906999999997,95.438,541.349,538.196,0.0
52677.0,STARLINK-4028,PAYLOAD,2022-10-14 11:48:35,15.08843304,0.0002123,53.2176,320.559,47.0562,313.0608,0.00012299,1.67e-05,0.0,0 STARLINK-4028,1 52677U 22053X   22287.49207926  .00001670  00000-0  12299-3 0  9999,2 52677  53.2176 320.5590 0002123  47.0562 313.0608 15.08843304 23214,6917.87,95.437,541.2040000000002,538.2669999999998,0.0
52677.0,STARLINK-4028,PAYLOAD,2022-10-15 08:28:36,15.08844563,0.0002133,53.2178,316.6931,44.8476,315.2688,-3.8295e-08,-2.89e-06,0.0,0 STARLINK-4028,1 52677U 22053X   22288.35319920 -.00000289  00000-0 -38295-7 0  9998,2 52677  53.2178 316.6931 0002133  44.8476 315.2688 15.08844563 23750,6917.866,95.437,541.207,538.256,0.0
52677.0,STARLINK-4028,PAYLOAD,2022-10-15 19:36:19,15.08825852,0.0001996,53.2168,314.6117,43.1518,316.963,-6.7913e-05,-1.368e-05,0.0,0 STARLINK-4028,1 52677U 22053X   22288.81689356 -.00001368  00000-0 -67913-4 0  9997,2 52677  53.2168 314.6117 0001996  43.1518 316.9630 15.08825852 23416,6917.924,95.438,541.169,538.408,0.0
52677.0,STARLINK-4028,PAYLOAD,2022-10-16 11:30:11,15.08823389,0.0002083,53.2169,311.6377,35.7274,324.3857,-0.00012963,-2.35e-05,0.0,0 STARLINK-4028,1 52677U 22053X   22289.47930057 -.00002350  00000-0 -12963-3 0  9993,2 52677  53.2169 311.6377 0002083  35.7274 324.3857 15.08823389 23929,6917.931,95.439,541.237,538.355,0.0
52677.0,STARLINK-4028,PAYLOAD,2022-10-17 04:59:25,15.08829174,0.0002029,53.2164,308.3639,31.1126,328.9986,-3.1714e-05,-7.93e-06,0.0,0 STARLINK-4028,1 52677U 22053X   22290.20793875 -.00000793  00000-0 -31714-4 0  9996,2 52677  53.2164 308.3639 0002029  31.1126 328.9986 15.08829174 23622,6917.913000000001,95.438,541.182,538.375,0.0
52677.0,STARLINK-4028,PAYLOAD,2022-10-17 11:20:56,15.08858644,0.000196,53.2171,307.177,38.5208,321.5923,0.00023542,3.462e-05,0.0,0 STARLINK-4028,1 52677U 22053X   22290.47287223  .00003462  00000-0  23542-3 0  9993,2 52677  53.2171 307.1770 0001960  38.5208 321.5923 15.08858644 24072,6917.823,95.436,541.044,538.3330000000002,0.0
52677.0,STARLINK-4028,PAYLOAD,2022-10-18 00:04:01,15.08844521,0.0001658,53.2183,304.7975,39.9165,320.1949,0.00022522,3.299e-05,0.0,0 STARLINK-4028,1 52677U 22053X   22291.00279723  .00003299  00000-0  22522-3 0  9994,2 52677  53.2183 304.7975 0001658  39.9165 320.1949 15.08844521 23741,6917.8669999999975,95.437,540.879,538.585,0.0
52677.0,STARLINK-4028,PAYLOAD,2022-10-18 08:00:58,15.08828793,0.0002185,53.217,303.3122,29.0499,331.0615,0.00015746,2.218e-05,0.0,0 STARLINK-4028,1 52677U 22053X   22291.33401104  .00002218  00000-0  15746-3 0  9990,2 52677  53.2170 303.3122 0002185  29.0499 331.0615 15.08828793 24208,6917.915,95.438,541.2909999999998,538.268,0.0
52677.0,STARLINK-4028,PAYLOAD,2022-10-18 17:33:17,15.08834576,0.0002243,53.2169,301.5276,36.0602,324.0541,0.00022805,3.343e-05,0.0,0 STARLINK-4028,1 52677U 22053X   22291.73144690  .00003343  00000-0  22805-3 0  9992,2 52677  53.2169 301.5276 0002243  36.0602 324.0541 15.08834576 23851,6917.897,95.438,541.314,538.21,0.0
52677.0,STARLINK-4028,PAYLOAD,2022-10-19 03:05:35,15.08881052,0.0001833,53.2165,299.7424,54.9017,305.2147,-0.00045676,-7.558e-05,0.0,0 STARLINK-4028,1 52677U 22053X   22292.12888375 -.00007558  00000-0 -45676-3 0  9996,2 52677  53.2165 299.7424 0001833  54.9017 305.2147 15.08881052 23914,6917.755,95.435,540.888,538.352,0.0
52677.0,STARLINK-4028,PAYLOAD,2022-10-19 09:27:08,15.08854834,0.0002098,53.217,298.5533,36.1978,323.9156,-0.00013078,-2.37e-05,0.0,0 STARLINK-4028,1 52677U 22053X   22292.39384388 -.00002370  00000-0 -13078-3 0  9998,2 52677  53.2170 298.5533 0002098  36.1978 323.9156 15.08854834 23959,6917.835,95.437,541.151,538.249,0.0
52677.0,STARLINK-4028,PAYLOAD,2022-10-19 17:24:02,15.08869614,0.0002273,53.2171,297.0665,35.4631,324.6512,-0.0002335999999999,-4.007e-05,0.0,0 STARLINK-4028,1 52677U 22053X   22292.72503467 -.00004007  00000-0 -23360-3 0  9990,2 52677  53.2171 297.0665 0002273  35.4631 324.6512 15.08869614 24411,6917.79,95.436,541.227,538.082,0.0
52677.0,STARLINK-4028,PAYLOAD,2022-10-20 04:31:45,15.08837578,0.0002262,53.2172,294.9851,37.9371,322.178,1.9526e-05,2.2e-07,0.0,0 STARLINK-4028,1 52677U 22053X   22293.18872415  .00000022  00000-0  19526-4 0  9994,2 52677  53.2172 294.9851 0002262  37.9371 322.1780 15.08837578 24077,6917.888000000001,95.438,541.318,538.188,0.0
52677.0,STARLINK-4028,PAYLOAD,2022-10-20 09:17:55,15.08838431,0.0002278,53.2172,294.093,38.0605,322.0548,2.3288e-05,8.2e-07,0.0,0 STARLINK-4028,1 52677U 22053X   22293.38744359  .00000082  00000-0  23288-4 0  9997,2 52677  53.2172 294.0930 0002278  38.0605 322.0548 15.08838431 24514,6917.885,95.438,541.326,538.174,0.0
52677.0,STARLINK-4028,PAYLOAD,2022-10-20 17:14:50,15.08847287,0.0002319999999999,53.2173,292.6059,37.3374,322.7779,2.8489e-05,1.65e-06,0.0,0 STARLINK-4028,1 52677U 22053X   22293.71863697  .00000165  00000-0  28489-4 0  9991,2 52677  53.2173 292.6059 0002320  37.3374 322.7779 15.08847287 24561,6917.858,95.437,541.328,538.118,0.0
52677.0,STARLINK-4028,PAYLOAD,2022-10-21 09:08:42,15.08837285,0.0002273,53.2173,289.6329,39.4823,320.6335,3.5686e-05,2.8e-06,0.0,0 STARLINK-4028,1 52677U 22053X   22294.38104235  .00000280  00000-0  35686-4 0  9996,2 52677  53.2173 289.6329 0002273  39.4823 320.6335 15.08837285 24669,6917.889,95.438,541.326,538.181,0.0
52677.0,STARLINK-4028,PAYLOAD,2022-10-21 17:05:37,15.08842169,0.0002265,53.2171,288.1457,38.1427,321.9726,6.4396e-05,7.37e-06,0.0,0 STARLINK-4028,1 52677U 22053X   22294.71223778  .00000737  00000-0  64396-4 0  9994,2 52677  53.2171 288.1457 0002265  38.1427 321.9726 15.08842169 24711,6917.874,95.437,541.306,538.172,0.0
52677.0,STARLINK-4028,PAYLOAD,2022-10-22 08:59:29,15.08838295,0.0002203,53.2171,285.1714,39.2991,320.816,1.4604e-05,-5.6e-07,0.0,0 STARLINK-4028,1 52677U 22053X   22295.37464121 -.00000056  00000-0  14604-4 0  9998,2 52677  53.2171 285.1714 0002203  39.2991 320.8160 15.08838295 24810,6917.886,95.438,541.275,538.227,0.0
52677.0,STARLINK-4028,PAYLOAD,2022-10-22 16:56:24,15.08849371,0.0002243,53.2175,283.6845,39.904,320.2116,-1.0853e-05,-4.61e-06,0.0,0 STARLINK-4028,1 52677U 22053X   22295.70583423 -.00000461  00000-0 -10853-4 0  9995,2 52677  53.2175 283.6845 0002243  39.9040 320.2116 15.08849371 24865,6917.852,95.437,541.268,538.165,0.0
52677.0,STARLINK-4028,PAYLOAD,2022-10-23 05:39:29,15.08840291,0.0002254,53.2175,281.3057,40.2178,319.898,7.9024e-05,9.7e-06,0.0,0 STARLINK-4028,1 52677U 22053X   22296.23575653  .00000970  00000-0  79024-4 0  9998,2 52677  53.2175 281.3057 0002254  40.2178 319.8980 15.08840291 24533,6917.879,95.438,541.304,538.185,0.0
52677.0,STARLINK-4028,PAYLOAD,2022-10-23 10:25:38,15.08843396,0.0002218999999999,53.2175,280.4133,39.9102,320.2053,4.6133e-05,4.46e-06,0.0,0 STARLINK-4028,1 52677U 22053X   22296.43447519  .00000446  00000-0  46133-4 0  9992,2 52677  53.2175 280.4133 0002219  39.9102 320.2053 15.08843396 24975,6917.87,95.437,541.27,538.2,0.0
52677.0,STARLINK-4028,PAYLOAD,2022-10-24 08:41:02,15.08844355,0.0002261,53.2169,276.2509,34.9478,325.1663,7.6961e-05,9.37e-06,0.0,0 STARLINK-4028,1 52677U 22053X   22297.36182966  .00000937  00000-0  76961-4 0  9994,2 52677  53.2169 276.2509 0002261  34.9478 325.1663 15.08844355 24704,6917.8669999999975,95.437,541.2959999999998,538.168,0.0
52677.0,STARLINK-4028,PAYLOAD,2022-10-24 22:59:32,15.08824804,0.0002346,53.2169,273.5733,36.8258,323.2895,-8.997100000000001e-05,-1.719e-05,0.0,0 STARLINK-4028,1 52677U 22053X   22297.95801102 -.00001719  00000-0 -89971-4 0  9995,2 52677  53.2169 273.5733 0002346  36.8258 323.2895 15.08824804 24796,6917.927,95.439,541.415,538.169,0.0
52677.0,STARLINK-4028,PAYLOAD,2022-10-25 08:31:51,15.08827593,0.0002379,53.2169,271.789,36.6545,323.4609,-8.4522e-05,-1.633e-05,0.0,0 STARLINK-4028,1 52677U 22053X   22298.35545205 -.00001633  00000-0 -84522-4 0  9991,2 52677  53.2169 271.7890 0002379  36.6545 323.4609 15.08827593 25269,6917.918000000002,95.438,541.429,538.138,0.0
52677.0,STARLINK-4028,PAYLOAD,2022-10-25 14:53:23,15.08834794,0.0002405,53.217,270.6007,36.4559,323.6597,-4.4594e-05,-9.98e-06,0.0,0 STARLINK-4028,1 52677U 22053X   22298.62040764 -.00000998  00000-0 -44594-4 0  9999,2 52677  53.2170 270.6007 0002405  36.4559 323.6597 15.08834794 25306,6917.896,95.438,541.425,538.0980000000002,0.0
